NORAD_CAT_ID,OBJECT_NAME,OBJECT_TYPE,EPOCH,MEAN_MOTION,ECCENTRICITY,INCLINATION,RA_OF_ASC_NODE,ARG_OF_PERICENTER,MEAN_ANOMALY,BSTAR,MEAN_MOTION_DOT,MEAN_MOTION_DDOT,TLE_LINE0,TLE_LINE1,TLE_LINE2,SEMIMAJOR_AXIS,PERIOD,APOGEE,PERIGEE,DECAYED
53595.0,STARLINK-4684,PAYLOAD,2024-03-29 12:33:19,15.08843154,0.0001518,53.2168,192.1945,88.1417,271.9749,0.00073093,0.00011365,0.0,0 STARLINK-4684,1 53595U 22104H   24089.52314258  .00011365  00000-0  73093-3 0  9990,2 53595  53.2168 192.1945 0001518  88.1417 271.9749 15.08843154 88126,6917.871,95.437,540.786,538.686,0.0
53595.0,STARLINK-4684,PAYLOAD,2024-03-30 12:24:06,15.08838077,0.0001754,53.2178,187.7358,85.0817,275.0375,7.5643e-05,9.16e-06,0.0,0 STARLINK-4684,1 53595U 22104H   24090.51674505  .00000916  00000-0  75643-4 0  9999,2 53595  53.2178 187.7358 0001754  85.0817 275.0375 15.08838077 88271,6917.886,95.438,540.965,538.538,0.0
53595.0,STARLINK-4684,PAYLOAD,2024-03-30 13:59:29,15.0884019,0.0001446,53.2161,187.4372,82.8856,277.23,9.893e-05,1.287e-05,0.0,0 STARLINK-4684,1 53595U 22104H   24090.58298255  .00001287  00000-0  98930-4 0  9996,2 53595  53.2161 187.4372 0001446  82.8856 277.2300 15.08840190 88891,6917.88,95.438,540.745,538.744,0.0
53595.0,STARLINK-4684,PAYLOAD,2024-03-31 13:50:16,15.08846316,0.0001404,53.2155,182.9768,84.3218,275.7934,0.00021622,3.155e-05,0.0,0 STARLINK-4684,1 53595U 22104H   24091.57658198  .00003155  00000-0  21622-3 0  9991,2 53595  53.2155 182.9768 0001404  84.3218 275.7934 15.08846316 89046,6917.861,95.437,540.697,538.755,0.0
53595.0,STARLINK-4684,PAYLOAD,2024-03-31 23:22:35,15.08840466,0.00014,53.2168,181.1907,80.1482,279.9668,0.00011361,1.521e-05,0.0,0 STARLINK-4684,1 53595U 22104H   24091.97402464  .00001521  00000-0  11361-3 0  9992,2 53595  53.2168 181.1907 0001400  80.1482 279.9668 15.08840466 88497,6917.879,95.438,540.712,538.775,0.0
53595.0,STARLINK-4684,PAYLOAD,2024-04-01 12:05:41,15.08839537,0.0001458,53.2158,178.8125,82.8594,277.2564,0.00011374,1.523e-05,0.0,0 STARLINK-4684,1 53595U 22104H   24092.50394704  .00001523  00000-0  11374-3 0  9995,2 53595  53.2158 178.8125 0001458  82.8594 277.2564 15.08839537 89187,6917.882,95.438,540.755,538.738,0.0
53595.0,STARLINK-4684,PAYLOAD,2024-04-02 05:34:55,15.08838354,0.0001395,53.2157,175.5401,86.5419,273.5733,0.00022143,3.238e-05,0.0,0 STARLINK-4684,1 53595U 22104H   24093.23258928  .00003238  00000-0  22143-3 0  9994,2 53595  53.2157 175.5401 0001395  86.5419 273.5733 15.08838354 88681,6917.885,95.438,540.715,538.785,0.0
53595.0,STARLINK-4684,PAYLOAD,2024-04-02 11:56:27,15.08847321,0.0001479,53.2164,174.3514,85.7739,274.3422,0.00010835,1.437e-05,0.0,0 STARLINK-4684,1 53595U 22104H   24093.49754419  .00001437  00000-0  10835-3 0  9992,2 53595  53.2164 174.3514 0001479  85.7739 274.3422 15.08847321 89331,6917.858,95.437,540.746,538.7,0.0
53595.0,STARLINK-4684,PAYLOAD,2024-04-03 05:25:42,15.08837416,0.0001551,53.2163,171.079,87.7979,272.319,0.00024393,3.596e-05,0.0,0 STARLINK-4684,1 53595U 22104H   24094.22618952  .00003596  00000-0  24393-3 0  9997,2 53595  53.2163 171.0790 0001551  87.7979 272.3190 15.08837416 88837,6917.888,95.438,540.826,538.68,0.0
53595.0,STARLINK-4684,PAYLOAD,2024-04-03 11:47:15,15.08839712,0.0001499,53.2161,169.8902,85.6077,274.5086,0.00025373,3.752e-05,0.0,0 STARLINK-4684,1 53595U 22104H   24094.49114837  .00003752  00000-0  25373-3 0  9992,2 53595  53.2161 169.8902 0001499  85.6077 274.5086 15.08839712 89483,6917.881,95.438,540.783,538.709,0.0
53595.0,STARLINK-4684,PAYLOAD,2024-04-03 14:58:01,15.08843136,0.0001522,53.2165,169.2958,84.0608,276.0558,9.2835e-05,1.19e-05,0.0,0 STARLINK-4684,1 53595U 22104H   24094.62362563  .00001190  00000-0  92835-4 0  9990,2 53595  53.2165 169.2958 0001522  84.0608 276.0558 15.08843136 89501,6917.871,95.437,540.789,538.683,0.0
53595.0,STARLINK-4684,PAYLOAD,2024-04-04 11:38:02,15.08838194,0.0001406,53.2161,165.431,83.0244,277.0908,5.9556e-05,6.6e-06,0.0,0 STARLINK-4684,1 53595U 22104H   24095.48474934  .00000660  00000-0  59556-4 0  9995,2 53595  53.2161 165.4310 0001406  83.0244 277.0908 15.08838194 89028,6917.886,95.438,540.724,538.778,0.0
53595.0,STARLINK-4684,PAYLOAD,2024-04-04 21:10:20,15.08843415,0.0001394,53.2162,163.6468,81.272,278.843,-1.4703e-06,-3.11e-06,0.0,0 STARLINK-4684,1 53595U 22104H   24095.88218677 -.00000311  00000-0 -14703-5 0  9990,2 53595  53.2162 163.6468 0001394  81.2720 278.8430 15.08843415 89692,6917.87,95.437,540.699,538.771,0.0
53595.0,STARLINK-4684,PAYLOAD,2024-04-05 11:28:48,15.08845297,0.0001341,53.2163,160.972,89.7912,270.3234,0.00011761,1.585e-05,0.0,0 STARLINK-4684,1 53595U 22104H   24096.47834321  .00001585  00000-0  11761-3 0  9997,2 53595  53.2163 160.9720 0001341  89.7912 270.3234 15.08845297 89781,6917.864,95.437,540.657,538.802,0.0
53595.0,STARLINK-4684,PAYLOAD,2024-04-05 21:01:08,15.08837958,0.000129,53.2158,159.1886,90.8233,269.2907,3.227e-05,2.26e-06,0.0,0 STARLINK-4684,1 53595U 22104H   24096.87578944  .00000226  00000-0  32270-4 0  9997,2 53595  53.2158 159.1886 0001290  90.8233 269.2907 15.08837958 89239,6917.887,95.438,540.644,538.859,0.0
53595.0,STARLINK-4684,PAYLOAD,2024-04-06 09:44:14,15.08829316,0.0001661,53.2166,156.8085,88.1408,271.9775,-1.001e-05,-4.47e-06,0.0,0 STARLINK-4684,1 53595U 22104H   24097.40572012 -.00000447  00000-0 -10010-4 0  9992,2 53595  53.2166 156.8085 0001661  88.1408 271.9775 15.08829316 89310,6917.913,95.438,540.927,538.629,0.0
53595.0,STARLINK-4684,PAYLOAD,2024-04-06 20:51:55,15.08834971,0.0001724,53.2171,154.7263,85.7712,274.3477,1.4919e-05,-5.1e-07,0.0,0 STARLINK-4684,1 53595U 22104H   24097.86939804 -.00000051  00000-0  14919-4 0  9990,2 53595  53.2171 154.7263 0001724  85.7712 274.3477 15.08834971 89995,6917.896,95.438,540.953,538.568,0.0
53595.0,STARLINK-4684,PAYLOAD,2024-04-07 09:35:00,15.08843256,0.0001806,53.2181,152.3474,97.5322,262.5875,4.5499e-05,4.36e-06,0.0,0 STARLINK-4684,1 53595U 22104H   24098.39931316  .00000436  00000-0  45499-4 0  9992,2 53595  53.2181 152.3474 0001806  97.5322 262.5875 15.08843256 90071,6917.87,95.437,540.985,538.486,0.0
53595.0,STARLINK-4684,PAYLOAD,2024-04-07 20:42:43,15.08824362,0.000191,53.2181,150.2657,94.7538,265.3672,0.00031488,4.725e-05,0.0,0 STARLINK-4684,1 53595U 22104H   24098.86300199  .00004725  00000-0  31488-3 0  9990,2 53595  53.2181 150.2657 0001910  94.7538 265.3672 15.08824362 90146,6917.928,95.439,541.115,538.472,0.0
53595.0,STARLINK-4684,PAYLOAD,2024-04-08 09:25:47,15.08838718,0.0001651,53.2161,147.8873,90.0974,270.0207,0.0001905,2.745e-05,0.0,0 STARLINK-4684,1 53595U 22104H   24099.39291627  .00002745  00000-0  19050-3 0  9995,2 53595  53.2161 147.8873 0001651  90.0974 270.0207 15.08838718 89618,6917.884,95.438,540.891,538.607,0.0
53595.0,STARLINK-4684,PAYLOAD,2024-04-08 20:33:29,15.08844252,0.000165,53.2152,145.8055,89.9625,270.1557,0.00018707,2.691e-05,0.0,0 STARLINK-4684,1 53595U 22104H   24099.85659476  .00002691  00000-0  18707-3 0  9994,2 53595  53.2152 145.8055 0001650  89.9625 270.1557 15.08844252 90292,6917.867,95.437,540.874,538.591,0.0
53595.0,STARLINK-4684,PAYLOAD,2024-04-09 09:16:34,15.08848816,0.0001629,53.2149,143.4262,91.135,268.9829,0.00019505,2.818e-05,0.0,0 STARLINK-4684,1 53595U 22104H   24100.38651105  .00002818  00000-0  19505-3 0  9994,2 53595  53.2149 143.4262 0001629  91.1350 268.9829 15.08848816 90374,6917.853,95.437,540.845,538.592,0.0
53595.0,STARLINK-4684,PAYLOAD,2024-04-10 12:18:07,15.08847506,0.0001571,53.2154,138.3696,96.01,264.1071,9.5112e-05,1.226e-05,0.0,0 STARLINK-4684,1 53595U 22104H   24101.51258731  .00001226  00000-0  95112-4 0  9999,2 53595  53.2154 138.3696 0001571  96.0100 264.1071 15.08847506 89939,6917.857,95.437,540.809,538.636,0.0
53595.0,STARLINK-4684,PAYLOAD,2024-04-11 08:58:09,15.08835776,0.0001474,53.2159,134.5053,89.5938,270.5223,-3.6828e-05,-8.74e-06,0.0,0 STARLINK-4684,1 53595U 22104H   24102.37371769 -.00000874  00000-0 -36828-4 0  9990,2 53595  53.2159 134.5053 0001474  89.5938 270.5223 15.08835776 90069,6917.893,95.438,540.778,538.739,0.0
53595.0,STARLINK-4684,PAYLOAD,2024-04-11 18:30:27,15.08837212,0.0001521,53.2163,132.7212,91.0582,269.0584,-2.9399e-07,-2.93e-06,0.0,0 STARLINK-4684,1 53595U 22104H   24102.77115693 -.00000293  00000-0 -29399-6 0  9998,2 53595  53.2163 132.7212 0001521  91.0582 269.0584 15.08837212 90731,6917.889,95.438,540.806,538.702,0.0
53595.0,STARLINK-4684,PAYLOAD,2024-04-12 08:48:55,15.08847501,0.0001423,53.2157,130.0449,89.8088,270.3067,8.0664e-05,9.96e-06,0.0,0 STARLINK-4684,1 53595U 22104H   24103.36730906  .00000996  00000-0  80664-4 0  9992,2 53595  53.2157 130.0449 0001423  89.8088 270.3067 15.08847501 90210,6917.857,95.437,540.707,538.738,0.0
53595.0,STARLINK-4684,PAYLOAD,2024-04-13 05:28:56,15.08837392,0.0001507,53.216,126.1771,85.276,274.8404,0.00012201,1.654e-05,0.0,0 STARLINK-4684,1 53595U 22104H   24104.22843698  .00001654  00000-0  12201-3 0  9994,2 53595  53.2160 126.1771 0001507  85.2760 274.8404 15.08837392 90343,6917.888,95.438,540.796,538.711,0.0
53595.0,STARLINK-4684,PAYLOAD,2024-04-13 10:15:06,15.08840062,0.0001524,53.2161,125.285,85.1096,275.007,0.00013956,1.934e-05,0.0,0 STARLINK-4684,1 53595U 22104H   24104.42715543  .00001934  00000-0  13956-3 0  9992,2 53595  53.2161 125.2850 0001524  85.1096 275.0070 15.08840062 90982,6917.88,95.438,540.799,538.691,0.0
53595.0,STARLINK-4684,PAYLOAD,2024-04-14 10:05:53,15.08840591,0.0001669,53.217,120.8241,88.5428,271.5755,1.9015e-05,1.5e-07,0.0,0 STARLINK-4684,1 53595U 22104H   24105.42075873  .00000015  00000-0  19015-4 0  9990,2 53595  53.2170 120.8241 0001669  88.5428 271.5755 15.08840591 90521,6917.879,95.438,540.898,538.589,0.0
53595.0,STARLINK-4684,PAYLOAD,2024-04-15 09:56:40,15.08845576,0.0001694,53.2172,116.3617,82.1203,277.9982,0.00011497,1.542e-05,0.0,0 STARLINK-4684,1 53595U 22104H   24106.41435376  .00001542  00000-0  11497-3 0  9999,2 53595  53.2172 116.3617 0001694  82.1203 277.9982 15.08845576 91283,6917.863,95.437,540.9,538.556,0.0
